ONEWEB-0053             
1 45157U 20008AC  26181.56252804  .00000203  00000+0  54551-3 0  9999
2 45157  87.8821  33.6190 0001810  69.8016 290.3306 13.10374043309663
ONEWEB-0054             
1 45158U 20008AD  26181.52184642 -.00000037  00000+0 -14122-3 0  9997
2 45158  87.8825  33.6114 0001862  84.2727 275.8613 13.10370547309777
ONEWEB-0056             
1 45159U 20008AE  26181.49282464  .00000246  00000+0  66916-3 0  9993
2 45159  87.8829  33.6104 0002081  86.4069 273.7296 13.10374751309920
ONEWEB-0057             
1 45160U 20008AF  26181.12828820  .00000150  00000+0  39268-3 0  9991
2 45160  87.8820  33.6951 0001926  69.8010 290.3324 13.10371700310044
ONEWEB-0058             
1 45161U 20008AG  26181.11509917  .00000660  00000+0  18546-2 0  9995
2 45161  87.8817  33.7028 0001670  90.8636 269.2683 13.10374951310113
ONEWEB-0059             
1 45162U 20008AH  26181.56947173  .00000451  00000+0  12551-2 0  9993
2 45162  87.8820  33.6115 0001635  77.3873 282.7438 13.10371751310076
ONEWEB-0062             
1 45163U 20008AJ  26181.59295627  .00000316  00000+0  86799-3 0  9993
2 45163  87.8822  33.5952 0001820  96.1050 264.0284 13.10370662309945
ONEWEB-0065             
1 45164U 20008AK  26181.09238788 -.00000276  00000+0 -82693-3 0  9990
2 45164  87.8828  33.7030 0002015  77.4423 282.6930 13.10376833309573
ONEWEB-0066             
1 45424U 20020A   26181.49862172 -.00000554  00000+0 -15996-2 0  9997
2 45424  87.8875  18.4204 0001640  87.0683 273.0633 13.11416081304429
ONEWEB-0067             
1 45425U 20020B   26181.46014574  .00000517  00000+0  14239-2 0  9996
2 45425  87.8899  18.3524 0001837  82.0351 278.0986 13.11424671304470
ONEWEB-0080             
1 45426U 20020C   26181.45978259  .00000588  00000+0  16238-2 0  9994
2 45426  87.8891  18.4259 0001811  97.5710 262.5624 13.11415959304444
ONEWEB-0090             
1 45427U 20020D   26181.48859330 -.00000349  00000+0 -10218-2 0  9995
2 45427  87.8887  18.4245 0001849  90.2784 269.8556 13.11415069304410
ONEWEB-0061             
1 45428U 20020E   26181.52053357  .00000095  00000+0  23114-3 0  9992
2 45428  87.8887  18.4026 0001797  88.4626 271.6707 13.11417708304370
ONEWEB-0081             
1 45429U 20020F   26181.50201286 -.00000505  00000+0 -14598-2 0  9990
2 45429  87.8882  18.4165 0001701  82.7295 277.4027 13.11416713304480
ONEWEB-0069             
1 45430U 20020G   26181.50386439  .00001016  00000+0  28313-2 0  9992
2 45430  87.8884  18.4193 0001730  84.5307 275.6018 13.11413934304416
ONEWEB-0031             
1 45431U 20020H   26181.46303155  .00000583  00000+0  16084-2 0  9992
2 45431  87.8875  18.4312 0001848  93.3099 266.8241 13.11415613304399
ONEWEB-0027             
1 45432U 20020J   26181.47404650  .00000054  00000+0  10688-3 0  9994
2 45432  87.9133   3.2218 0002249  99.7292 260.4093 13.17651750308104
ONEWEB-0064             
1 45433U 20020K   26181.46133686  .00000603  00000+0  16659-2 0  9995
2 45433  87.8880  18.4237 0001923  92.6637 267.4711 13.11417026304420
ONEWEB-0018             
1 45434U 20020L   26181.49339017 -.00000499  00000+0 -14428-2 0  9992
2 45434  87.8880  18.4169 0001431  91.6622 268.4670 13.11414829304379
ONEWEB-0083             
1 45435U 20020M   26181.48350701 -.00000270  00000+0 -79641-3 0  9991
2 45435  87.8885  18.4131 0001801  90.6361 269.4973 13.11414757304416
ONEWEB-0095             
1 45436U 20020N   26181.47502908  .00000217  00000+0  57770-3 0  9997
2 45436  87.8885  18.4235 0002490  84.9302 275.2110 13.11413742304419
ONEWEB-0092             
1 45437U 20020P   26181.50541024 -.00000418  00000+0 -12157-2 0  9998
2 45437  87.8887  18.4090 0002004  81.6817 278.4539 13.11412924304531
ONEWEB-0085             
1 45438U 20020Q   26181.48323188 -.00000199  00000+0 -59678-3 0  9991
2 45438  87.8877  18.4192 0001835  88.7647 271.3692 13.11415301304415
ONEWEB-0096             
1 45439U 20020R   26181.48505518 -.00000183  00000+0 -55241-3 0  9996
2 45439  87.8884  18.4154 0001923  88.2584 271.8765 13.11413589304406
ONEWEB-0037             
1 45440U 20020S   26181.51332070 -.00000153  00000+0 -46293-3 0  9997
2 45440  87.8898  18.3826 0001894  86.1657 273.9688 13.11914661304441
ONEWEB-0042             
1 45441U 20020T   26181.47476096  .00000203  00000+0  53784-3 0  9997
2 45441  87.8886  18.4139 0001766  84.9058 275.2272 13.11415353304400
ONEWEB-0098             
1 45442U 20020U   26181.47065337  .00000352  00000+0  95661-3 0  9995
2 45442  87.8883  18.4238 0001809  90.8971 269.2364 13.11416452304389
ONEWEB-0055             
1 45443U 20020V   26181.52562951  .00000193  00000+0  50905-3 0  9991
2 45443  87.8888  18.4119 0001832  90.7852 269.3486 13.11418142304368
ONEWEB-0093             
1 45444U 20020W   26181.50670717  .00003472  00000+0  98351-2 0  9999
2 45444  87.8884  18.4090 0000956 122.6072 237.5148 13.10874214304422
ONEWEB-0029             
1 45445U 20020X   26181.53268421  .00000497  00000+0  13671-2 0  9994
2 45445  87.8877  18.4115 0001608  83.3594 276.7717 13.11415764304407
