OBJECT_NAME,OBJECT_ID,EPOCH,MEAN_MOTION,ECCENTRICITY,INCLINATION,RA_OF_ASC_NODE,ARG_OF_PERICENTER,MEAN_ANOMALY,EPHEMERIS_TYPE,CLASSIFICATION_TYPE,NORAD_CAT_ID,ELEMENT_SET_NO,REV_AT_EPOCH,BSTAR,MEAN_MOTION_DOT,MEAN_MOTION_DDOT
ONEWEB-0053,2020-008AC,2026-06-30T13:30:02.422656,13.10374043,.00018101,87.8821,33.6190,69.8016,290.3306,0,U,45157,999,30966,.54550683E-3,.203E-5,0
ONEWEB-0054,2020-008AD,2026-06-30T12:31:27.530688,13.10370547,.00018628,87.8825,33.6114,84.2727,275.8613,0,U,45158,999,30977,-.14122092E-3,-.37E-6,0
ONEWEB-0056,2020-008AE,2026-06-30T11:49:40.048896,13.10374751,.00020811,87.8829,33.6104,86.4069,273.7296,0,U,45159,999,30992,.66915612E-3,.246E-5,0
ONEWEB-0057,2020-008AF,2026-06-30T03:04:44.100480,13.10371700,.00019263,87.8820,33.6951,69.8010,290.3324,0,U,45160,999,31004,.39268043E-3,.15E-5,0
ONEWEB-0058,2020-008AG,2026-06-30T02:45:44.568288,13.10374951,.00016701,87.8817,33.7028,90.8636,269.2683,0,U,45161,999,31011,.18546022E-2,.66E-5,0
ONEWEB-0059,2020-008AH,2026-06-30T13:40:02.357472,13.10371751,.00016359,87.8820,33.6115,77.3873,282.7438,0,U,45162,999,31007,.12551342E-2,.451E-5,0
ONEWEB-0062,2020-008AJ,2026-06-30T14:13:51.421728,13.10370662,.000182,87.8822,33.5952,96.1050,264.0284,0,U,45163,999,30994,.86798995E-3,.316E-5,0
ONEWEB-0065,2020-008AK,2026-06-30T02:13:02.312832,13.10376833,.00020157,87.8828,33.7030,77.4423,282.6930,0,U,45164,999,30957,-.8269264E-3,-.276E-5,0
ONEWEB-0066,2020-020A,2026-06-30T11:58:00.916608,13.11416081,.000164,87.8875,18.4204,87.0683,273.0633,0,U,45424,999,30442,-.15996035E-2,-.554E-5,0
ONEWEB-0067,2020-020B,2026-06-30T11:02:36.591936,13.11424671,.00018371,87.8899,18.3524,82.0351,278.0986,0,U,45425,999,30447,.1423875E-2,.517E-5,0
ONEWEB-0080,2020-020C,2026-06-30T11:02:05.215776,13.11415959,.00018114,87.8891,18.4259,97.5710,262.5624,0,U,45426,999,30444,.16237525E-2,.588E-5,0
ONEWEB-0090,2020-020D,2026-06-30T11:43:34.461120,13.11415069,.00018493,87.8887,18.4245,90.2784,269.8556,0,U,45427,999,30441,-.10217836E-2,-.349E-5,0
ONEWEB-0061,2020-020E,2026-06-30T12:29:34.100448,13.11417708,.00017974,87.8887,18.4026,88.4626,271.6707,0,U,45428,999,30437,.23114427E-3,.95E-6,0
ONEWEB-0081,2020-020F,2026-06-30T12:02:53.911104,13.11416713,.00017014,87.8882,18.4165,82.7295,277.4027,0,U,45429,999,30448,-.14598179E-2,-.505E-5,0
ONEWEB-0069,2020-020G,2026-06-30T12:05:33.883296,13.11413934,.00017303,87.8884,18.4193,84.5307,275.6018,0,U,45430,999,30441,.28313004E-2,.1016E-4,0
ONEWEB-0031,2020-020H,2026-06-30T11:06:45.925920,13.11415613,.00018489,87.8875,18.4312,93.3099,266.8241,0,U,45431,999,30439,.1608434E-2,.583E-5,0
ONEWEB-0027,2020-020J,2026-06-30T11:22:37.617600,13.17651750,.00022497,87.9133,3.2218,99.7292,260.4093,0,U,45432,999,30810,.10688476E-3,.54E-6,0
ONEWEB-0064,2020-020K,2026-06-30T11:04:19.504704,13.11417026,.00019235,87.8880,18.4237,92.6637,267.4711,0,U,45433,999,30442,.16659211E-2,.603E-5,0
ONEWEB-0018,2020-020L,2026-06-30T11:50:28.910688,13.11414829,.00014319,87.8880,18.4169,91.6622,268.4670,0,U,45434,999,30437,-.14427971E-2,-.499E-5,0
ONEWEB-0083,2020-020M,2026-06-30T11:36:15.005664,13.11414757,.0001801,87.8885,18.4131,90.6361,269.4973,0,U,45435,999,30441,-.79640874E-3,-.27E-5,0
ONEWEB-0095,2020-020N,2026-06-30T11:24:02.512512,13.11413742,.00024901,87.8885,18.4235,84.9302,275.2110,0,U,45436,999,30441,.577702E-3,.217E-5,0
ONEWEB-0092,2020-020P,2026-06-30T12:07:47.444736,13.11412924,.00020049,87.8887,18.4090,81.6817,278.4539,0,U,45437,999,30453,-.12157492E-2,-.418E-5,0
ONEWEB-0085,2020-020Q,2026-06-30T11:35:51.234432,13.11415301,.00018356,87.8877,18.4192,88.7647,271.3692,0,U,45438,999,30441,-.59677883E-3,-.199E-5,0
ONEWEB-0096,2020-020R,2026-06-30T11:38:28.767552,13.11413589,.00019237,87.8884,18.4154,88.2584,271.8765,0,U,45439,999,30440,-.55240682E-3,-.183E-5,0
ONEWEB-0037,2020-020S,2026-06-30T12:19:10.908480,13.11914661,.00018948,87.8898,18.3826,86.1657,273.9688,0,U,45440,999,30444,-.46292647E-3,-.153E-5,0
ONEWEB-0042,2020-020T,2026-06-30T11:23:39.346944,13.11415353,.00017661,87.8886,18.4139,84.9058,275.2272,0,U,45441,999,30440,.53783748E-3,.203E-5,0
ONEWEB-0098,2020-020U,2026-06-30T11:17:44.451168,13.11416452,.00018091,87.8883,18.4238,90.8971,269.2364,0,U,45442,999,30438,.95660993E-3,.352E-5,0
ONEWEB-0055,2020-020V,2026-06-30T12:36:54.389664,13.11418142,.00018322,87.8888,18.4119,90.7852,269.3486,0,U,45443,999,30436,.50904714E-3,.193E-5,0
ONEWEB-0093,2020-020W,2026-06-30T12:09:39.499488,13.10874214,.00009562,87.8884,18.4090,122.6072,237.5148,0,U,45444,999,30442,.98351091E-2,.3472E-4,0
ONEWEB-0029,2020-020X,2026-06-30T12:47:03.915744,13.11415764,.00016087,87.8877,18.4115,83.3594,276.7717,0,U,45445,999,30440,.13671368E-2,.497E-5,0
